STARLINK-1364
1 25589C 20025BL  21325.10972306  .00001149  00000-0  77021-4 0  3250
2 25589  53.0540 282.7414 0002014  59.1708 242.4527 15.06395124    18
